ONEWEB-0683             
1 56719U 23068K   25328.61332088  .00000225  00000+0  56297-3 0  9998
2 56719  87.8984 300.0016 0001696  75.4425 284.6894 13.15548625122526
ONEWEB-0684             
1 56720U 23068L   25328.62123959  .00000123  00000+0  29239-3 0  9999
2 56720  87.8982 299.9948 0003278  74.5915 285.5577 13.15550761122351
ONEWEB-0686             
1 56721U 23068M   25328.59060255  .00000177  00000+0  43955-3 0  9995
2 56721  87.9020 269.5397 0002013  68.4692 291.6653 13.15055224124794
ONEWEB-0694             
1 56722U 23068N   25328.55062050  .00000036  00000+0  61175-4 0  9996
2 56722  87.9040 269.4871 0001624  64.5272 295.6026 13.16593698124848
ONEWEB-0696             
1 56723U 23068P   25328.42634381 -.00000041  00000+0 -14214-3 0  9994
2 56723  87.8969 300.0883 0002296  84.1275 276.0117 13.15547859122445
ONEWEB-0703             
1 56724U 23068Q   25328.66402803 -.00000005  00000+0 -46402-4 0  9998
2 56724  87.8968 300.0230 0002771  98.7576 261.3868 13.15548631122364
ONEWEB-0721             
1 56725U 23068R   25328.78324449  .00000009  00000+0 -13283-4 0  9995
2 56725  86.6791 150.7160 0001445  88.4985 271.6313 13.22452290130928
ONEWEB-0015             
1 61594U 24188A   25328.68151969 -.00000471  00000+0 -13660-2 0  9994
2 61594  87.8863  61.8254 0001475 123.7811 236.3457 13.11417214 57651
